ZACUBE-1 (TSHEPISOSAT)  
1 39417U 13066B   26063.86135088  .00007114  00000+0  56258-3 0  9997
2 39417  97.8184  25.6614 0041804 236.2610 123.4626 15.00265604665082
WNISAT-1                
1 39423U 13066H   26063.68920941  .00002582  00000+0  47822-3 0  9995
2 39423  97.7030 220.3631 0163224 200.6278 158.8284 14.57849387651508
TRITON-1                
1 39427U 13066M   26063.80713933  .00003866  00000+0  47048-3 0  9990
2 39427  97.8306 336.0107 0089808 213.7473 145.8003 14.81165315658634
GOMX-1                  
1 39430U 13066Q   26063.85280039  .00002767  00000+0  42115-3 0  9994
2 39430  97.6569 270.8598 0130548  52.9165 308.3893 14.69076086654591
CUBEBUG-2 (LO-74)       
1 39440U 13066AA  26063.80491366  .00009013  00000+0  84552-3 0  9999
2 39440  97.8816  12.4703 0059286  15.3033 344.9962 14.92882320661417
NEE-02 KRYSAOR          
1 39441U 13066AB  26063.86700161  .00004163  00000+0  46163-3 0  9999
2 39441  97.8818   3.9113 0068102  52.5526 308.1858 14.86123379660709
FUNCUBE-1 (AO-73)       
1 39444U 13066AE  26063.39850331  .00015175  00000+0  97977-3 0  9999
2 39444  97.8175  32.8468 0036706 197.5791 162.4169 15.07790976663864
UWE-3                   
1 39446U 13066AG  26063.64687173  .00007547  00000+0  66020-3 0  9990
2 39446  97.8595  19.1594 0048758 309.8470  49.8465 14.96109228661947
BRITE-CA1 (TORONTO)     
1 40020U 14033L   26063.32853596  .00001935  00000+0  29920-3 0  9997
2 40020  97.9558 194.3075 0077710 252.3100 106.9613 14.72445502626784
DUCHIFAT-1              
1 40021U 14033M   26063.33958146  .00090082  00000+0  16454-2 0  9994
2 40021  98.0635 109.1395 0006598  99.6030 260.5965 15.49057269639440
NANOSATC-BR1            
1 40024U 14033Q   26063.02340148  .00026861  00000+0  98782-3 0  9999
2 40024  98.0836  86.3172 0004002 164.1002 196.0362 15.27859132637908
QB50P1                  
1 40025U 14033R   26063.49721693  .00016603  00000+0  85697-3 0  9993
2 40025  98.0999  67.4292 0007791 214.5862 145.4863 15.16385168637156
QB50P2                  
1 40032U 14033Y   26063.70521855  .00012892  00000+0  72181-3 0  9993
2 40032  98.0729  54.2225 0008106 157.0796 203.0797 15.13555975636858
PERSEUS-M2              
1 40037U 14033AD  26063.80842247  .00004973  00000+0  45827-3 0  9998
2 40037  97.9868  12.3222 0010200 290.0188  69.9933 14.95135256635189
PERSEUS-M1              
1 40039U 14033AF  26063.78887616  .00004009  00000+0  36969-3 0  9993
2 40039  97.9556   6.3003 0009943 287.1114  72.9017 14.95223669635030
POLYITAN-1              
1 40042U 14033AJ  26063.50567694  .00032972  00000+0  11583-2 0  9992
2 40042  98.1045  80.1264 0008961 142.9202 217.2657 15.29286382637578
TIGRISAT                
1 40043U 14033AK  26063.46800355  .00003648  00000+0  42735-3 0  9994
2 40043  97.7659 215.9997 0050694  59.1928 301.4262 14.84695897630082
